{
"type": "FeatureCollection",
"name": "Lo_DP1",
"crs": { "type": "name", "properties": { "name": "urn:ogc:def:crs:OGC:1.3:CRS84" } },
"features": [
{ "type": "Feature", "properties": { "Name": "1", "description": "<br><br><br>\n    <table border=\"1\" padding=\"0\">\n      <tr><td>Degrees</td><td></td></tr>\n      <tr><td>DMS</td><td></td></tr>\n        ", "timestamp": null, "begin": null, "end": null, "altitudeMode": "relativeToGround", "tessellate": -1, "extrude": 1, "visibility": 1, "drawOrder": null, "icon": null }, "geometry": { "type": "Point", "coordinates": [ 106.999208, 13.425448, 0.0 ] } },
{ "type": "Feature", "properties": { "Name": "2", "description": "<br><br><br>\n    <table border=\"1\" padding=\"0\">\n      <tr><td>Degrees</td><td></td></tr>\n      <tr><td>DMS</td><td></td></tr>\n        ", "timestamp": null, "begin": null, "end": null, "altitudeMode": "relativeToGround", "tessellate": -1, "extrude": 1, "visibility": 1, "drawOrder": null, "icon": null }, "geometry": { "type": "Point", "coordinates": [ 106.999784, 13.417433, 0.0 ] } },
{ "type": "Feature", "properties": { "Name": "3", "description": "<br><br><br>\n    <table border=\"1\" padding=\"0\">\n      <tr><td>Degrees</td><td></td></tr>\n      <tr><td>DMS</td><td></td></tr>\n        ", "timestamp": null, "begin": null, "end": null, "altitudeMode": "relativeToGround", "tessellate": -1, "extrude": 1, "visibility": 1, "drawOrder": null, "icon": null }, "geometry": { "type": "Point", "coordinates": [ 106.999732, 13.410603, 0.0 ] } },
{ "type": "Feature", "properties": { "Name": "4", "description": "<br><br><br>\n    <table border=\"1\" padding=\"0\">\n      <tr><td>Degrees</td><td></td></tr>\n      <tr><td>DMS</td><td></td></tr>\n        ", "timestamp": null, "begin": null, "end": null, "altitudeMode": "relativeToGround", "tessellate": -1, "extrude": 1, "visibility": 1, "drawOrder": null, "icon": null }, "geometry": { "type": "Point", "coordinates": [ 106.999784, 13.405768, 0.0 ] } },
{ "type": "Feature", "properties": { "Name": "5", "description": "<br><br><br>\n    <table border=\"1\" padding=\"0\">\n      <tr><td>Degrees</td><td></td></tr>\n      <tr><td>DMS</td><td></td></tr>\n        ", "timestamp": null, "begin": null, "end": null, "altitudeMode": "relativeToGround", "tessellate": -1, "extrude": 1, "visibility": 1, "drawOrder": null, "icon": null }, "geometry": { "type": "Point", "coordinates": [ 106.994453, 13.459011, 0.0 ] } },
{ "type": "Feature", "properties": { "Name": "6", "description": "<br><br><br>\n    <table border=\"1\" padding=\"0\">\n      <tr><td>Degrees</td><td></td></tr>\n      <tr><td>DMS</td><td></td></tr>\n        ", "timestamp": null, "begin": null, "end": null, "altitudeMode": "relativeToGround", "tessellate": -1, "extrude": 1, "visibility": 1, "drawOrder": null, "icon": null }, "geometry": { "type": "Point", "coordinates": [ 106.994452, 13.450037, 0.0 ] } },
{ "type": "Feature", "properties": { "Name": "7", "description": "<br><br><br>\n    <table border=\"1\" padding=\"0\">\n      <tr><td>Degrees</td><td></td></tr>\n      <tr><td>DMS</td><td></td></tr>\n        ", "timestamp": null, "begin": null, "end": null, "altitudeMode": "relativeToGround", "tessellate": -1, "extrude": 1, "visibility": 1, "drawOrder": null, "icon": null }, "geometry": { "type": "Point", "coordinates": [ 106.994247, 13.441063, 0.0 ] } },
{ "type": "Feature", "properties": { "Name": "8", "description": "<br><br><br>\n    <table border=\"1\" padding=\"0\">\n      <tr><td>Degrees</td><td></td></tr>\n      <tr><td>DMS</td><td></td></tr>\n        ", "timestamp": null, "begin": null, "end": null, "altitudeMode": "relativeToGround", "tessellate": -1, "extrude": 1, "visibility": 1, "drawOrder": null, "icon": null }, "geometry": { "type": "Point", "coordinates": [ 106.994141, 13.43204, 0.0 ] } },
{ "type": "Feature", "properties": { "Name": "9", "description": "<br><br><br>\n    <table border=\"1\" padding=\"0\">\n      <tr><td>Degrees</td><td></td></tr>\n      <tr><td>DMS</td><td></td></tr>\n        ", "timestamp": null, "begin": null, "end": null, "altitudeMode": "relativeToGround", "tessellate": -1, "extrude": 1, "visibility": 1, "drawOrder": null, "icon": null }, "geometry": { "type": "Point", "coordinates": [ 106.991018, 13.459013, 0.0 ] } },
{ "type": "Feature", "properties": { "Name": "10", "description": "<br><br><br>\n    <table border=\"1\" padding=\"0\">\n      <tr><td>Degrees</td><td></td></tr>\n      <tr><td>DMS</td><td></td></tr>\n        ", "timestamp": null, "begin": null, "end": null, "altitudeMode": "relativeToGround", "tessellate": -1, "extrude": 1, "visibility": 1, "drawOrder": null, "icon": null }, "geometry": { "type": "Point", "coordinates": [ 106.991089, 13.450238, 0.0 ] } },
{ "type": "Feature", "properties": { "Name": "11", "description": "<br><br><br>\n    <table border=\"1\" padding=\"0\">\n      <tr><td>Degrees</td><td></td></tr>\n      <tr><td>DMS</td><td></td></tr>\n        ", "timestamp": null, "begin": null, "end": null, "altitudeMode": "relativeToGround", "tessellate": -1, "extrude": 1, "visibility": 1, "drawOrder": null, "icon": null }, "geometry": { "type": "Point", "coordinates": [ 106.990628, 13.440915, 0.0 ] } },
{ "type": "Feature", "properties": { "Name": "12", "description": "<br><br><br>\n    <table border=\"1\" padding=\"0\">\n      <tr><td>Degrees</td><td></td></tr>\n      <tr><td>DMS</td><td></td></tr>\n        ", "timestamp": null, "begin": null, "end": null, "altitudeMode": "relativeToGround", "tessellate": -1, "extrude": 1, "visibility": 1, "drawOrder": null, "icon": null }, "geometry": { "type": "Point", "coordinates": [ 106.990935, 13.432139, 0.0 ] } },
{ "type": "Feature", "properties": { "Name": "13", "description": "<br><br><br>\n    <table border=\"1\" padding=\"0\">\n      <tr><td>Degrees</td><td></td></tr>\n      <tr><td>DMS</td><td></td></tr>\n        ", "timestamp": null, "begin": null, "end": null, "altitudeMode": "relativeToGround", "tessellate": -1, "extrude": 1, "visibility": 1, "drawOrder": null, "icon": null }, "geometry": { "type": "Point", "coordinates": [ 106.992524, 13.425209, 0.0 ] } },
{ "type": "Feature", "properties": { "Name": "14", "description": "<br><br><br>\n    <table border=\"1\" padding=\"0\">\n      <tr><td>Degrees</td><td></td></tr>\n      <tr><td>DMS</td><td></td></tr>\n        ", "timestamp": null, "begin": null, "end": null, "altitudeMode": "relativeToGround", "tessellate": -1, "extrude": 1, "visibility": 1, "drawOrder": null, "icon": null }, "geometry": { "type": "Point", "coordinates": [ 106.992678, 13.417282, 0.0 ] } },
{ "type": "Feature", "properties": { "Name": "15", "description": "<br><br><br>\n    <table border=\"1\" padding=\"0\">\n      <tr><td>Degrees</td><td></td></tr>\n      <tr><td>DMS</td><td></td></tr>\n        ", "timestamp": null, "begin": null, "end": null, "altitudeMode": "relativeToGround", "tessellate": -1, "extrude": 1, "visibility": 1, "drawOrder": null, "icon": null }, "geometry": { "type": "Point", "coordinates": [ 106.992268, 13.410751, 0.0 ] } },
{ "type": "Feature", "properties": { "Name": "16", "description": "<br><br><br>\n    <table border=\"1\" padding=\"0\">\n      <tr><td>Degrees</td><td></td></tr>\n      <tr><td>DMS</td><td></td></tr>\n        ", "timestamp": null, "begin": null, "end": null, "altitudeMode": "relativeToGround", "tessellate": -1, "extrude": 1, "visibility": 1, "drawOrder": null, "icon": null }, "geometry": { "type": "Point", "coordinates": [ 106.992166, 13.404619, 0.0 ] } },
{ "type": "Feature", "properties": { "Name": "17", "description": "<br><br><br>\n    <table border=\"1\" padding=\"0\">\n      <tr><td>Degrees</td><td></td></tr>\n      <tr><td>DMS</td><td></td></tr>\n        ", "timestamp": null, "begin": null, "end": null, "altitudeMode": "relativeToGround", "tessellate": -1, "extrude": 1, "visibility": 1, "drawOrder": null, "icon": null }, "geometry": { "type": "Point", "coordinates": [ 106.986681, 13.459112, 0.0 ] } },
{ "type": "Feature", "properties": { "Name": "18", "description": "<br><br><br>\n    <table border=\"1\" padding=\"0\">\n      <tr><td>Degrees</td><td></td></tr>\n      <tr><td>DMS</td><td></td></tr>\n        ", "timestamp": null, "begin": null, "end": null, "altitudeMode": "relativeToGround", "tessellate": -1, "extrude": 1, "visibility": 1, "drawOrder": null, "icon": null }, "geometry": { "type": "Point", "coordinates": [ 106.986425, 13.450237, 0.0 ] } },
{ "type": "Feature", "properties": { "Name": "19", "description": "<br><br><br>\n    <table border=\"1\" padding=\"0\">\n      <tr><td>Degrees</td><td></td></tr>\n      <tr><td>DMS</td><td></td></tr>\n        ", "timestamp": null, "begin": null, "end": null, "altitudeMode": "relativeToGround", "tessellate": -1, "extrude": 1, "visibility": 1, "drawOrder": null, "icon": null }, "geometry": { "type": "Point", "coordinates": [ 106.987343, 13.441014, 0.0 ] } },
{ "type": "Feature", "properties": { "Name": "20", "description": "<br><br><br>\n    <table border=\"1\" padding=\"0\">\n      <tr><td>Degrees</td><td></td></tr>\n      <tr><td>DMS</td><td></td></tr>\n        ", "timestamp": null, "begin": null, "end": null, "altitudeMode": "relativeToGround", "tessellate": -1, "extrude": 1, "visibility": 1, "drawOrder": null, "icon": null }, "geometry": { "type": "Point", "coordinates": [ 106.987295, 13.432239, 0.0 ] } },
{ "type": "Feature", "properties": { "Name": "21", "description": "<br><br><br>\n    <table border=\"1\" padding=\"0\">\n      <tr><td>Degrees</td><td></td></tr>\n      <tr><td>DMS</td><td></td></tr>\n        ", "timestamp": null, "begin": null, "end": null, "altitudeMode": "relativeToGround", "tessellate": -1, "extrude": 1, "visibility": 1, "drawOrder": null, "icon": null }, "geometry": { "type": "Point", "coordinates": [ 106.986834, 13.42531, 0.0 ] } },
{ "type": "Feature", "properties": { "Name": "22", "description": "<br><br><br>\n    <table border=\"1\" padding=\"0\">\n      <tr><td>Degrees</td><td></td></tr>\n      <tr><td>DMS</td><td></td></tr>\n        ", "timestamp": null, "begin": null, "end": null, "altitudeMode": "relativeToGround", "tessellate": -1, "extrude": 1, "visibility": 1, "drawOrder": null, "icon": null }, "geometry": { "type": "Point", "coordinates": [ 106.986577, 13.417432, 0.0 ] } },
{ "type": "Feature", "properties": { "Name": "23", "description": "<br><br><br>\n    <table border=\"1\" padding=\"0\">\n      <tr><td>Degrees</td><td></td></tr>\n      <tr><td>DMS</td><td></td></tr>\n        ", "timestamp": null, "begin": null, "end": null, "altitudeMode": "relativeToGround", "tessellate": -1, "extrude": 1, "visibility": 1, "drawOrder": null, "icon": null }, "geometry": { "type": "Point", "coordinates": [ 106.986424, 13.410801, 0.0 ] } },
{ "type": "Feature", "properties": { "Name": "24", "description": "<br><br><br>\n    <table border=\"1\" padding=\"0\">\n      <tr><td>Degrees</td><td></td></tr>\n      <tr><td>DMS</td><td></td></tr>\n        ", "timestamp": null, "begin": null, "end": null, "altitudeMode": "relativeToGround", "tessellate": -1, "extrude": 1, "visibility": 1, "drawOrder": null, "icon": null }, "geometry": { "type": "Point", "coordinates": [ 106.98627, 13.404719, 0.0 ] } },
{ "type": "Feature", "properties": { "Name": "25", "description": "<br><br><br>\n    <table border=\"1\" padding=\"0\">\n      <tr><td>Degrees</td><td></td></tr>\n      <tr><td>DMS</td><td></td></tr>\n        ", "timestamp": null, "begin": null, "end": null, "altitudeMode": "relativeToGround", "tessellate": -1, "extrude": 1, "visibility": 1, "drawOrder": null, "icon": null }, "geometry": { "type": "Point", "coordinates": [ 106.982527, 13.432241, 0.0 ] } },
{ "type": "Feature", "properties": { "Name": "26", "description": "<br><br><br>\n    <table border=\"1\" padding=\"0\">\n      <tr><td>Degrees</td><td></td></tr>\n      <tr><td>DMS</td><td></td></tr>\n        ", "timestamp": null, "begin": null, "end": null, "altitudeMode": "relativeToGround", "tessellate": -1, "extrude": 1, "visibility": 1, "drawOrder": null, "icon": null }, "geometry": { "type": "Point", "coordinates": [ 106.981656, 13.42526, 0.0 ] } },
{ "type": "Feature", "properties": { "Name": "27", "description": "<br><br><br>\n    <table border=\"1\" padding=\"0\">\n      <tr><td>Degrees</td><td></td></tr>\n      <tr><td>DMS</td><td></td></tr>\n        ", "timestamp": null, "begin": null, "end": null, "altitudeMode": "relativeToGround", "tessellate": -1, "extrude": 1, "visibility": 1, "drawOrder": null, "icon": null }, "geometry": { "type": "Point", "coordinates": [ 106.981041, 13.417432, 0.0 ] } },
{ "type": "Feature", "properties": { "Name": "28", "description": "<br><br><br>\n    <table border=\"1\" padding=\"0\">\n      <tr><td>Degrees</td><td></td></tr>\n      <tr><td>DMS</td><td></td></tr>\n        ", "timestamp": null, "begin": null, "end": null, "altitudeMode": "relativeToGround", "tessellate": -1, "extrude": 1, "visibility": 1, "drawOrder": null, "icon": null }, "geometry": { "type": "Point", "coordinates": [ 106.981041, 13.410551, 0.0 ] } },
{ "type": "Feature", "properties": { "Name": "29", "description": "<br><br><br>\n    <table border=\"1\" padding=\"0\">\n      <tr><td>Degrees</td><td></td></tr>\n      <tr><td>DMS</td><td></td></tr>\n        ", "timestamp": null, "begin": null, "end": null, "altitudeMode": "relativeToGround", "tessellate": -1, "extrude": 1, "visibility": 1, "drawOrder": null, "icon": null }, "geometry": { "type": "Point", "coordinates": [ 106.981092, 13.404817, 0.0 ] } }
]
}
