{
"type": "FeatureCollection",
"name": "Lo_DP2",
"crs": { "type": "name", "properties": { "name": "urn:ogc:def:crs:OGC:1.3:CRS84" } },
"features": [
{ "type": "Feature", "properties": { "Name": "5", "description": "<br><br><br>\n    <table border=\"1\" padding=\"0\">\n      <tr><td>Degrees</td><td></td></tr>\n      <tr><td>DMS</td><td></td></tr>\n        ", "timestamp": null, "begin": null, "end": null, "altitudeMode": "relativeToGround", "tessellate": -1, "extrude": 1, "visibility": 1, "drawOrder": null, "icon": null }, "geometry": { "type": "Point", "coordinates": [ 106.975557, 13.460807, 0.0 ] } },
{ "type": "Feature", "properties": { "Name": "6", "description": "<br><br><br>\n    <table border=\"1\" padding=\"0\">\n      <tr><td>Degrees</td><td></td></tr>\n      <tr><td>DMS</td><td></td></tr>\n        ", "timestamp": null, "begin": null, "end": null, "altitudeMode": "relativeToGround", "tessellate": -1, "extrude": 1, "visibility": 1, "drawOrder": null, "icon": null }, "geometry": { "type": "Point", "coordinates": [ 106.975481, 13.453894, 0.0 ] } },
{ "type": "Feature", "properties": { "Name": "7", "description": "<br><br><br>\n    <table border=\"1\" padding=\"0\">\n      <tr><td>Degrees</td><td></td></tr>\n      <tr><td>DMS</td><td></td></tr>\n        ", "timestamp": null, "begin": null, "end": null, "altitudeMode": "relativeToGround", "tessellate": -1, "extrude": 1, "visibility": 1, "drawOrder": null, "icon": null }, "geometry": { "type": "Point", "coordinates": [ 106.975292, 13.447532, 0.0 ] } },
{ "type": "Feature", "properties": { "Name": "8", "description": "<br><br><br>\n    <table border=\"1\" padding=\"0\">\n      <tr><td>Degrees</td><td></td></tr>\n      <tr><td>DMS</td><td></td></tr>\n        ", "timestamp": null, "begin": null, "end": null, "altitudeMode": "relativeToGround", "tessellate": -1, "extrude": 1, "visibility": 1, "drawOrder": null, "icon": null }, "geometry": { "type": "Point", "coordinates": [ 106.975268, 13.440811, 0.0 ] } },
{ "type": "Feature", "properties": { "Name": "9", "description": "<br><br><br>\n    <table border=\"1\" padding=\"0\">\n      <tr><td>Degrees</td><td></td></tr>\n      <tr><td>DMS</td><td></td></tr>\n        ", "timestamp": null, "begin": null, "end": null, "altitudeMode": "relativeToGround", "tessellate": -1, "extrude": 1, "visibility": 1, "drawOrder": null, "icon": null }, "geometry": { "type": "Point", "coordinates": [ 106.970583, 13.460833, 0.0 ] } },
{ "type": "Feature", "properties": { "Name": "10", "description": "<br><br><br>\n    <table border=\"1\" padding=\"0\">\n      <tr><td>Degrees</td><td></td></tr>\n      <tr><td>DMS</td><td></td></tr>\n        ", "timestamp": null, "begin": null, "end": null, "altitudeMode": "relativeToGround", "tessellate": -1, "extrude": 1, "visibility": 1, "drawOrder": null, "icon": null }, "geometry": { "type": "Point", "coordinates": [ 106.970835, 13.453929, 0.0 ] } },
{ "type": "Feature", "properties": { "Name": "11", "description": "<br><br><br>\n    <table border=\"1\" padding=\"0\">\n      <tr><td>Degrees</td><td></td></tr>\n      <tr><td>DMS</td><td></td></tr>\n        ", "timestamp": null, "begin": null, "end": null, "altitudeMode": "relativeToGround", "tessellate": -1, "extrude": 1, "visibility": 1, "drawOrder": null, "icon": null }, "geometry": { "type": "Point", "coordinates": [ 106.970685, 13.447802, 0.0 ] } },
{ "type": "Feature", "properties": { "Name": "12", "description": "<br><br><br>\n    <table border=\"1\" padding=\"0\">\n      <tr><td>Degrees</td><td></td></tr>\n      <tr><td>DMS</td><td></td></tr>\n        ", "timestamp": null, "begin": null, "end": null, "altitudeMode": "relativeToGround", "tessellate": -1, "extrude": 1, "visibility": 1, "drawOrder": null, "icon": null }, "geometry": { "type": "Point", "coordinates": [ 106.970691, 13.440872, 0.0 ] } },
{ "type": "Feature", "properties": { "Name": "13", "description": "<br><br><br>\n    <table border=\"1\" padding=\"0\">\n      <tr><td>Degrees</td><td></td></tr>\n      <tr><td>DMS</td><td></td></tr>\n        ", "timestamp": null, "begin": null, "end": null, "altitudeMode": "relativeToGround", "tessellate": -1, "extrude": 1, "visibility": 1, "drawOrder": null, "icon": null }, "geometry": { "type": "Point", "coordinates": [ 106.966638, 13.460966, 0.0 ] } },
{ "type": "Feature", "properties": { "Name": "14", "description": "<br><br><br>\n    <table border=\"1\" padding=\"0\">\n      <tr><td>Degrees</td><td></td></tr>\n      <tr><td>DMS</td><td></td></tr>\n        ", "timestamp": null, "begin": null, "end": null, "altitudeMode": "relativeToGround", "tessellate": -1, "extrude": 1, "visibility": 1, "drawOrder": null, "icon": null }, "geometry": { "type": "Point", "coordinates": [ 106.966515, 13.454052, 0.0 ] } },
{ "type": "Feature", "properties": { "Name": "15", "description": "<br><br><br>\n    <table border=\"1\" padding=\"0\">\n      <tr><td>Degrees</td><td></td></tr>\n      <tr><td>DMS</td><td></td></tr>\n        ", "timestamp": null, "begin": null, "end": null, "altitudeMode": "relativeToGround", "tessellate": -1, "extrude": 1, "visibility": 1, "drawOrder": null, "icon": null }, "geometry": { "type": "Point", "coordinates": [ 106.966335, 13.447833, 0.0 ] } },
{ "type": "Feature", "properties": { "Name": "16", "description": "<br><br><br>\n    <table border=\"1\" padding=\"0\">\n      <tr><td>Degrees</td><td></td></tr>\n      <tr><td>DMS</td><td></td></tr>\n        ", "timestamp": null, "begin": null, "end": null, "altitudeMode": "relativeToGround", "tessellate": -1, "extrude": 1, "visibility": 1, "drawOrder": null, "icon": null }, "geometry": { "type": "Point", "coordinates": [ 106.966301, 13.441075, 0.0 ] } },
{ "type": "Feature", "properties": { "Name": "17", "description": "<br><br><br>\n    <table border=\"1\" padding=\"0\">\n      <tr><td>Degrees</td><td></td></tr>\n      <tr><td>DMS</td><td></td></tr>\n        ", "timestamp": null, "begin": null, "end": null, "altitudeMode": "relativeToGround", "tessellate": -1, "extrude": 1, "visibility": 1, "drawOrder": null, "icon": null }, "geometry": { "type": "Point", "coordinates": [ 106.962274, 13.460836, 0.0 ] } },
{ "type": "Feature", "properties": { "Name": "18", "description": "<br><br><br>\n    <table border=\"1\" padding=\"0\">\n      <tr><td>Degrees</td><td></td></tr>\n      <tr><td>DMS</td><td></td></tr>\n        ", "timestamp": null, "begin": null, "end": null, "altitudeMode": "relativeToGround", "tessellate": -1, "extrude": 1, "visibility": 1, "drawOrder": null, "icon": null }, "geometry": { "type": "Point", "coordinates": [ 106.961851, 13.453944, 0.0 ] } },
{ "type": "Feature", "properties": { "Name": "19", "description": "<br><br><br>\n    <table border=\"1\" padding=\"0\">\n      <tr><td>Degrees</td><td></td></tr>\n      <tr><td>DMS</td><td></td></tr>\n        ", "timestamp": null, "begin": null, "end": null, "altitudeMode": "relativeToGround", "tessellate": -1, "extrude": 1, "visibility": 1, "drawOrder": null, "icon": null }, "geometry": { "type": "Point", "coordinates": [ 106.961256, 13.44782, 0.0 ] } },
{ "type": "Feature", "properties": { "Name": "20", "description": "<br><br><br>\n    <table border=\"1\" padding=\"0\">\n      <tr><td>Degrees</td><td></td></tr>\n      <tr><td>DMS</td><td></td></tr>\n        ", "timestamp": null, "begin": null, "end": null, "altitudeMode": "relativeToGround", "tessellate": -1, "extrude": 1, "visibility": 1, "drawOrder": null, "icon": null }, "geometry": { "type": "Point", "coordinates": [ 106.961467, 13.441077, 0.0 ] } },
{ "type": "Feature", "properties": { "Name": "21", "description": "<br><br><br>\n    <table border=\"1\" padding=\"0\">\n      <tr><td>Degrees</td><td></td></tr>\n      <tr><td>DMS</td><td></td></tr>\n        ", "timestamp": null, "begin": null, "end": null, "altitudeMode": "relativeToGround", "tessellate": -1, "extrude": 1, "visibility": 1, "drawOrder": null, "icon": null }, "geometry": { "type": "Point", "coordinates": [ 106.956987, 13.4583, 0.0 ] } },
{ "type": "Feature", "properties": { "Name": "22", "description": "<br><br><br>\n    <table border=\"1\" padding=\"0\">\n      <tr><td>Degrees</td><td></td></tr>\n      <tr><td>DMS</td><td></td></tr>\n        ", "timestamp": null, "begin": null, "end": null, "altitudeMode": "relativeToGround", "tessellate": -1, "extrude": 1, "visibility": 1, "drawOrder": null, "icon": null }, "geometry": { "type": "Point", "coordinates": [ 106.957291, 13.454039, 0.0 ] } },
{ "type": "Feature", "properties": { "Name": "23", "description": "<br><br><br>\n    <table border=\"1\" padding=\"0\">\n      <tr><td>Degrees</td><td></td></tr>\n      <tr><td>DMS</td><td></td></tr>\n        ", "timestamp": null, "begin": null, "end": null, "altitudeMode": "relativeToGround", "tessellate": -1, "extrude": 1, "visibility": 1, "drawOrder": null, "icon": null }, "geometry": { "type": "Point", "coordinates": [ 106.956807, 13.447758, 0.0 ] } },
{ "type": "Feature", "properties": { "Name": "24", "description": "<br><br><br>\n    <table border=\"1\" padding=\"0\">\n      <tr><td>Degrees</td><td></td></tr>\n      <tr><td>DMS</td><td></td></tr>\n        ", "timestamp": null, "begin": null, "end": null, "altitudeMode": "relativeToGround", "tessellate": -1, "extrude": 1, "visibility": 1, "drawOrder": null, "icon": null }, "geometry": { "type": "Point", "coordinates": [ 106.956943, 13.44106, 0.0 ] } },
{ "type": "Feature", "properties": { "Name": "25", "description": "<br><br><br>\n    <table border=\"1\" padding=\"0\">\n      <tr><td>Degrees</td><td></td></tr>\n      <tr><td>DMS</td><td></td></tr>\n        ", "timestamp": null, "begin": null, "end": null, "altitudeMode": "relativeToGround", "tessellate": -1, "extrude": 1, "visibility": 1, "drawOrder": null, "icon": null }, "geometry": { "type": "Point", "coordinates": [ 106.951529, 13.458275, 0.0 ] } },
{ "type": "Feature", "properties": { "Name": "26", "description": "<br><br><br>\n    <table border=\"1\" padding=\"0\">\n      <tr><td>Degrees</td><td></td></tr>\n      <tr><td>DMS</td><td></td></tr>\n        ", "timestamp": null, "begin": null, "end": null, "altitudeMode": "relativeToGround", "tessellate": -1, "extrude": 1, "visibility": 1, "drawOrder": null, "icon": null }, "geometry": { "type": "Point", "coordinates": [ 106.951311, 13.454219, 0.0 ] } },
{ "type": "Feature", "properties": { "Name": "27", "description": "<br><br><br>\n    <table border=\"1\" padding=\"0\">\n      <tr><td>Degrees</td><td></td></tr>\n      <tr><td>DMS</td><td></td></tr>\n        ", "timestamp": null, "begin": null, "end": null, "altitudeMode": "relativeToGround", "tessellate": -1, "extrude": 1, "visibility": 1, "drawOrder": null, "icon": null }, "geometry": { "type": "Point", "coordinates": [ 106.951198, 13.447796, 0.0 ] } },
{ "type": "Feature", "properties": { "Name": "28", "description": "<br><br><br>\n    <table border=\"1\" padding=\"0\">\n      <tr><td>Degrees</td><td></td></tr>\n      <tr><td>DMS</td><td></td></tr>\n        ", "timestamp": null, "begin": null, "end": null, "altitudeMode": "relativeToGround", "tessellate": -1, "extrude": 1, "visibility": 1, "drawOrder": null, "icon": null }, "geometry": { "type": "Point", "coordinates": [ 106.950659, 13.441082, 0.0 ] } },
{ "type": "Feature", "properties": { "Name": "30", "description": "<br><br><br>\n    <table border=\"1\" padding=\"0\">\n      <tr><td>Degrees</td><td></td></tr>\n      <tr><td>DMS</td><td></td></tr>\n        ", "timestamp": null, "begin": null, "end": null, "altitudeMode": "relativeToGround", "tessellate": -1, "extrude": 1, "visibility": 1, "drawOrder": null, "icon": null }, "geometry": { "type": "Point", "coordinates": [ 106.944377, 13.454116, 0.0 ] } },
{ "type": "Feature", "properties": { "Name": "31", "description": "<br><br><br>\n    <table border=\"1\" padding=\"0\">\n      <tr><td>Degrees</td><td></td></tr>\n      <tr><td>DMS</td><td></td></tr>\n        ", "timestamp": null, "begin": null, "end": null, "altitudeMode": "relativeToGround", "tessellate": -1, "extrude": 1, "visibility": 1, "drawOrder": null, "icon": null }, "geometry": { "type": "Point", "coordinates": [ 106.944432, 13.447893, 0.0 ] } },
{ "type": "Feature", "properties": { "Name": "32", "description": "<br><br><br>\n    <table border=\"1\" padding=\"0\">\n      <tr><td>Degrees</td><td></td></tr>\n      <tr><td>DMS</td><td></td></tr>\n        ", "timestamp": null, "begin": null, "end": null, "altitudeMode": "relativeToGround", "tessellate": -1, "extrude": 1, "visibility": 1, "drawOrder": null, "icon": null }, "geometry": { "type": "Point", "coordinates": [ 106.94681, 13.441336, 0.0 ] } },
{ "type": "Feature", "properties": { "Name": "1", "description": "<br><br><br>\n    <table border=\"1\" padding=\"0\">\n      <tr><td>Degrees</td><td></td></tr>\n      <tr><td>DMS</td><td></td></tr>\n        ", "timestamp": null, "begin": null, "end": null, "altitudeMode": "relativeToGround", "tessellate": -1, "extrude": 1, "visibility": 1, "drawOrder": null, "icon": null }, "geometry": { "type": "Point", "coordinates": [ 106.979415, 13.460739, 0.0 ] } },
{ "type": "Feature", "properties": { "Name": "2", "description": "<br><br><br>\n    <table border=\"1\" padding=\"0\">\n      <tr><td>Degrees</td><td></td></tr>\n      <tr><td>DMS</td><td></td></tr>\n        ", "timestamp": null, "begin": null, "end": null, "altitudeMode": "relativeToGround", "tessellate": -1, "extrude": 1, "visibility": 1, "drawOrder": null, "icon": null }, "geometry": { "type": "Point", "coordinates": [ 106.979394, 13.453749, 0.0 ] } },
{ "type": "Feature", "properties": { "Name": "3", "description": "<br><br><br>\n    <table border=\"1\" padding=\"0\">\n      <tr><td>Degrees</td><td></td></tr>\n      <tr><td>DMS</td><td></td></tr>\n        ", "timestamp": null, "begin": null, "end": null, "altitudeMode": "relativeToGround", "tessellate": -1, "extrude": 1, "visibility": 1, "drawOrder": null, "icon": null }, "geometry": { "type": "Point", "coordinates": [ 106.979628, 13.44753, 0.0 ] } },
{ "type": "Feature", "properties": { "Name": "4", "description": "<br><br><br>\n    <table border=\"1\" padding=\"0\">\n      <tr><td>Degrees</td><td></td></tr>\n      <tr><td>DMS</td><td></td></tr>\n        ", "timestamp": null, "begin": null, "end": null, "altitudeMode": "relativeToGround", "tessellate": -1, "extrude": 1, "visibility": 1, "drawOrder": null, "icon": null }, "geometry": { "type": "Point", "coordinates": [ 106.979571, 13.441107, 0.0 ] } },
{ "type": "Feature", "properties": { "Name": "29", "description": "<br><br><br>\n    <table border=\"1\" padding=\"0\">\n      <tr><td>Degrees</td><td></td></tr>\n      <tr><td>DMS</td><td></td></tr>\n        ", "timestamp": null, "begin": null, "end": null, "altitudeMode": "relativeToGround", "tessellate": -1, "extrude": 1, "visibility": 1, "drawOrder": null, "icon": null }, "geometry": { "type": "Point", "coordinates": [ 106.944445, 13.460761, 0.0 ] } }
]
}
