{
"type": "FeatureCollection",
"name": "Lo_DP3",
"crs": { "type": "name", "properties": { "name": "urn:ogc:def:crs:OGC:1.3:CRS84" } },
"features": [
{ "type": "Feature", "properties": { "Name": "22", "description": "<br><br><br>\n    <table border=\"1\" padding=\"0\">\n      <tr><td>Degrees</td><td></td></tr>\n      <tr><td>DMS</td><td></td></tr>\n        ", "timestamp": null, "begin": null, "end": null, "altitudeMode": "relativeToGround", "tessellate": -1, "extrude": 1, "visibility": 1, "drawOrder": null, "icon": null }, "geometry": { "type": "Point", "coordinates": [ 106.907217, 13.46113, 0.0 ] } },
{ "type": "Feature", "properties": { "Name": "18", "description": "<br><br><br>\n    <table border=\"1\" padding=\"0\">\n      <tr><td>Degrees</td><td></td></tr>\n      <tr><td>DMS</td><td></td></tr>\n        ", "timestamp": null, "begin": null, "end": null, "altitudeMode": "relativeToGround", "tessellate": -1, "extrude": 1, "visibility": 1, "drawOrder": null, "icon": null }, "geometry": { "type": "Point", "coordinates": [ 106.914026, 13.461049, 0.0 ] } },
{ "type": "Feature", "properties": { "Name": "14", "description": "<br><br><br>\n    <table border=\"1\" padding=\"0\">\n      <tr><td>Degrees</td><td></td></tr>\n      <tr><td>DMS</td><td></td></tr>\n        ", "timestamp": null, "begin": null, "end": null, "altitudeMode": "relativeToGround", "tessellate": -1, "extrude": 1, "visibility": 1, "drawOrder": null, "icon": null }, "geometry": { "type": "Point", "coordinates": [ 106.921125, 13.461049, 0.0 ] } },
{ "type": "Feature", "properties": { "Name": "23", "description": "<br><br><br>\n    <table border=\"1\" padding=\"0\">\n      <tr><td>Degrees</td><td></td></tr>\n      <tr><td>DMS</td><td></td></tr>\n        ", "timestamp": null, "begin": null, "end": null, "altitudeMode": "relativeToGround", "tessellate": -1, "extrude": 1, "visibility": 1, "drawOrder": null, "icon": null }, "geometry": { "type": "Point", "coordinates": [ 106.907301, 13.454387, 0.0 ] } },
{ "type": "Feature", "properties": { "Name": "19", "description": "<br><br><br>\n    <table border=\"1\" padding=\"0\">\n      <tr><td>Degrees</td><td></td></tr>\n      <tr><td>DMS</td><td></td></tr>\n        ", "timestamp": null, "begin": null, "end": null, "altitudeMode": "relativeToGround", "tessellate": -1, "extrude": 1, "visibility": 1, "drawOrder": null, "icon": null }, "geometry": { "type": "Point", "coordinates": [ 106.914275, 13.454347, 0.0 ] } },
{ "type": "Feature", "properties": { "Name": "15", "description": "<br><br><br>\n    <table border=\"1\" padding=\"0\">\n      <tr><td>Degrees</td><td></td></tr>\n      <tr><td>DMS</td><td></td></tr>\n        ", "timestamp": null, "begin": null, "end": null, "altitudeMode": "relativeToGround", "tessellate": -1, "extrude": 1, "visibility": 1, "drawOrder": null, "icon": null }, "geometry": { "type": "Point", "coordinates": [ 106.921208, 13.454266, 0.0 ] } },
{ "type": "Feature", "properties": { "Name": "11", "description": "<br><br><br>\n    <table border=\"1\" padding=\"0\">\n      <tr><td>Degrees</td><td></td></tr>\n      <tr><td>DMS</td><td></td></tr>\n        ", "timestamp": null, "begin": null, "end": null, "altitudeMode": "relativeToGround", "tessellate": -1, "extrude": 1, "visibility": 1, "drawOrder": null, "icon": null }, "geometry": { "type": "Point", "coordinates": [ 106.92814, 13.454307, 0.0 ] } },
{ "type": "Feature", "properties": { "Name": "7", "description": "<br><br><br>\n    <table border=\"1\" padding=\"0\">\n      <tr><td>Degrees</td><td></td></tr>\n      <tr><td>DMS</td><td></td></tr>\n        ", "timestamp": null, "begin": null, "end": null, "altitudeMode": "relativeToGround", "tessellate": -1, "extrude": 1, "visibility": 1, "drawOrder": null, "icon": null }, "geometry": { "type": "Point", "coordinates": [ 106.933803, 13.453987, 0.0 ] } },
{ "type": "Feature", "properties": { "Name": "24", "description": "<br><br><br>\n    <table border=\"1\" padding=\"0\">\n      <tr><td>Degrees</td><td></td></tr>\n      <tr><td>DMS</td><td></td></tr>\n        ", "timestamp": null, "begin": null, "end": null, "altitudeMode": "relativeToGround", "tessellate": -1, "extrude": 1, "visibility": 1, "drawOrder": null, "icon": null }, "geometry": { "type": "Point", "coordinates": [ 106.907135, 13.447484, 0.0 ] } },
{ "type": "Feature", "properties": { "Name": "20", "description": "<br><br><br>\n    <table border=\"1\" padding=\"0\">\n      <tr><td>Degrees</td><td></td></tr>\n      <tr><td>DMS</td><td></td></tr>\n        ", "timestamp": null, "begin": null, "end": null, "altitudeMode": "relativeToGround", "tessellate": -1, "extrude": 1, "visibility": 1, "drawOrder": null, "icon": null }, "geometry": { "type": "Point", "coordinates": [ 106.914358, 13.447564, 0.0 ] } },
{ "type": "Feature", "properties": { "Name": "16", "description": "<br><br><br>\n    <table border=\"1\" padding=\"0\">\n      <tr><td>Degrees</td><td></td></tr>\n      <tr><td>DMS</td><td></td></tr>\n        ", "timestamp": null, "begin": null, "end": null, "altitudeMode": "relativeToGround", "tessellate": -1, "extrude": 1, "visibility": 1, "drawOrder": null, "icon": null }, "geometry": { "type": "Point", "coordinates": [ 106.921208, 13.447605, 0.0 ] } },
{ "type": "Feature", "properties": { "Name": "12", "description": "<br><br><br>\n    <table border=\"1\" padding=\"0\">\n      <tr><td>Degrees</td><td></td></tr>\n      <tr><td>DMS</td><td></td></tr>\n        ", "timestamp": null, "begin": null, "end": null, "altitudeMode": "relativeToGround", "tessellate": -1, "extrude": 1, "visibility": 1, "drawOrder": null, "icon": null }, "geometry": { "type": "Point", "coordinates": [ 106.928099, 13.447524, 0.0 ] } },
{ "type": "Feature", "properties": { "Name": "8", "description": "<br><br><br>\n    <table border=\"1\" padding=\"0\">\n      <tr><td>Degrees</td><td></td></tr>\n      <tr><td>DMS</td><td></td></tr>\n        ", "timestamp": null, "begin": null, "end": null, "altitudeMode": "relativeToGround", "tessellate": -1, "extrude": 1, "visibility": 1, "drawOrder": null, "icon": null }, "geometry": { "type": "Point", "coordinates": [ 106.933577, 13.447443, 0.0 ] } },
{ "type": "Feature", "properties": { "Name": "4", "description": "<br><br><br>\n    <table border=\"1\" padding=\"0\">\n      <tr><td>Degrees</td><td></td></tr>\n      <tr><td>DMS</td><td></td></tr>\n        ", "timestamp": null, "begin": null, "end": null, "altitudeMode": "relativeToGround", "tessellate": -1, "extrude": 1, "visibility": 1, "drawOrder": null, "icon": null }, "geometry": { "type": "Point", "coordinates": [ 106.938498, 13.447335, 0.0 ] } },
{ "type": "Feature", "properties": { "Name": "25", "description": "<br><br><br>\n    <table border=\"1\" padding=\"0\">\n      <tr><td>Degrees</td><td></td></tr>\n      <tr><td>DMS</td><td></td></tr>\n        ", "timestamp": null, "begin": null, "end": null, "altitudeMode": "relativeToGround", "tessellate": -1, "extrude": 1, "visibility": 1, "drawOrder": null, "icon": null }, "geometry": { "type": "Point", "coordinates": [ 106.907093, 13.440822, 0.0 ] } },
{ "type": "Feature", "properties": { "Name": "21", "description": "<br><br><br>\n    <table border=\"1\" padding=\"0\">\n      <tr><td>Degrees</td><td></td></tr>\n      <tr><td>DMS</td><td></td></tr>\n        ", "timestamp": null, "begin": null, "end": null, "altitudeMode": "relativeToGround", "tessellate": -1, "extrude": 1, "visibility": 1, "drawOrder": null, "icon": null }, "geometry": { "type": "Point", "coordinates": [ 106.914192, 13.440741, 0.0 ] } },
{ "type": "Feature", "properties": { "Name": "17", "description": "<br><br><br>\n    <table border=\"1\" padding=\"0\">\n      <tr><td>Degrees</td><td></td></tr>\n      <tr><td>DMS</td><td></td></tr>\n        ", "timestamp": null, "begin": null, "end": null, "altitudeMode": "relativeToGround", "tessellate": -1, "extrude": 1, "visibility": 1, "drawOrder": null, "icon": null }, "geometry": { "type": "Point", "coordinates": [ 106.921208, 13.440701, 0.0 ] } },
{ "type": "Feature", "properties": { "Name": "13", "description": "<br><br><br>\n    <table border=\"1\" padding=\"0\">\n      <tr><td>Degrees</td><td></td></tr>\n      <tr><td>DMS</td><td></td></tr>\n        ", "timestamp": null, "begin": null, "end": null, "altitudeMode": "relativeToGround", "tessellate": -1, "extrude": 1, "visibility": 1, "drawOrder": null, "icon": null }, "geometry": { "type": "Point", "coordinates": [ 106.928034, 13.440914, 0.0 ] } },
{ "type": "Feature", "properties": { "Name": "9", "description": "<br><br><br>\n    <table border=\"1\" padding=\"0\">\n      <tr><td>Degrees</td><td></td></tr>\n      <tr><td>DMS</td><td></td></tr>\n        ", "timestamp": null, "begin": null, "end": null, "altitudeMode": "relativeToGround", "tessellate": -1, "extrude": 1, "visibility": 1, "drawOrder": null, "icon": null }, "geometry": { "type": "Point", "coordinates": [ 106.933391, 13.44084, 0.0 ] } },
{ "type": "Feature", "properties": { "Name": "5", "description": "<br><br><br>\n    <table border=\"1\" padding=\"0\">\n      <tr><td>Degrees</td><td></td></tr>\n      <tr><td>DMS</td><td></td></tr>\n        ", "timestamp": null, "begin": null, "end": null, "altitudeMode": "relativeToGround", "tessellate": -1, "extrude": 1, "visibility": 1, "drawOrder": null, "icon": null }, "geometry": { "type": "Point", "coordinates": [ 106.938442, 13.440678, 0.0 ] } },
{ "type": "Feature", "properties": { "Name": "1", "description": "<br><br><br>\n    <table border=\"1\" padding=\"0\">\n      <tr><td>Degrees</td><td></td></tr>\n      <tr><td>DMS</td><td></td></tr>\n        ", "timestamp": null, "begin": null, "end": null, "altitudeMode": "relativeToGround", "tessellate": -1, "extrude": 1, "visibility": 1, "drawOrder": null, "icon": null }, "geometry": { "type": "Point", "coordinates": [ 106.942022, 13.440672, 0.0 ] } },
{ "type": "Feature", "properties": { "Name": "3", "description": "<br><br><br>\n    <table border=\"1\" padding=\"0\">\n      <tr><td>Degrees</td><td></td></tr>\n      <tr><td>DMS</td><td></td></tr>\n        ", "timestamp": null, "begin": null, "end": null, "altitudeMode": "relativeToGround", "tessellate": -1, "extrude": 1, "visibility": 1, "drawOrder": null, "icon": null }, "geometry": { "type": "Point", "coordinates": [ 106.93745, 13.451752, 0.0 ] } },
{ "type": "Feature", "properties": { "Name": "10", "description": "<br><br><br>\n    <table border=\"1\" padding=\"0\">\n      <tr><td>Degrees</td><td></td></tr>\n      <tr><td>DMS</td><td></td></tr>\n        ", "timestamp": null, "begin": null, "end": null, "altitudeMode": "relativeToGround", "tessellate": -1, "extrude": 1, "visibility": 1, "drawOrder": null, "icon": null }, "geometry": { "type": "Point", "coordinates": [ 106.928166, 13.460905, 0.0 ] } },
{ "type": "Feature", "properties": { "Name": "6", "description": "<br><br><br>\n    <table border=\"1\" padding=\"0\">\n      <tr><td>Degrees</td><td></td></tr>\n      <tr><td>DMS</td><td></td></tr>\n        ", "timestamp": null, "begin": null, "end": null, "altitudeMode": "relativeToGround", "tessellate": -1, "extrude": 1, "visibility": 1, "drawOrder": null, "icon": null }, "geometry": { "type": "Point", "coordinates": [ 106.933715, 13.460953, 0.0 ] } },
{ "type": "Feature", "properties": { "Name": "2", "description": "<br><br><br>\n    <table border=\"1\" padding=\"0\">\n      <tr><td>Degrees</td><td></td></tr>\n      <tr><td>DMS</td><td></td></tr>\n        ", "timestamp": null, "begin": null, "end": null, "altitudeMode": "relativeToGround", "tessellate": -1, "extrude": 1, "visibility": 1, "drawOrder": null, "icon": null }, "geometry": { "type": "Point", "coordinates": [ 106.938352, 13.460953, 0.0 ] } }
]
}
