{
"type": "FeatureCollection",
"name": "LO_LP1",
"crs": { "type": "name", "properties": { "name": "urn:ogc:def:crs:OGC:1.3:CRS84" } },
"features": [
{ "type": "Feature", "properties": { "Name": "2", "description": "<br><br><br>\n    <table border=\"1\" padding=\"0\">\n      <tr><td>Degrees</td><td></td></tr>\n      <tr><td>DMS</td><td></td></tr>\n        ", "timestamp": null, "begin": null, "end": null, "altitudeMode": "relativeToGround", "tessellate": -1, "extrude": 1, "visibility": 1, "drawOrder": null, "icon": null }, "geometry": { "type": "Point", "coordinates": [ 106.868231, 13.391446, 0.0 ] } },
{ "type": "Feature", "properties": { "Name": "3", "description": "<br><br><br>\n    <table border=\"1\" padding=\"0\">\n      <tr><td>Degrees</td><td></td></tr>\n      <tr><td>DMS</td><td></td></tr>\n        ", "timestamp": null, "begin": null, "end": null, "altitudeMode": "relativeToGround", "tessellate": -1, "extrude": 1, "visibility": 1, "drawOrder": null, "icon": null }, "geometry": { "type": "Point", "coordinates": [ 106.868231, 13.385718, 0.0 ] } },
{ "type": "Feature", "properties": { "Name": "4", "description": "<br><br><br>\n    <table border=\"1\" padding=\"0\">\n      <tr><td>Degrees</td><td></td></tr>\n      <tr><td>DMS</td><td></td></tr>\n        ", "timestamp": null, "begin": null, "end": null, "altitudeMode": "relativeToGround", "tessellate": -1, "extrude": 1, "visibility": 1, "drawOrder": null, "icon": null }, "geometry": { "type": "Point", "coordinates": [ 106.868063, 13.381356, 0.0 ] } },
{ "type": "Feature", "properties": { "Name": "5", "description": "<br><br><br>\n    <table border=\"1\" padding=\"0\">\n      <tr><td>Degrees</td><td></td></tr>\n      <tr><td>DMS</td><td></td></tr>\n        ", "timestamp": null, "begin": null, "end": null, "altitudeMode": "relativeToGround", "tessellate": -1, "extrude": 1, "visibility": 1, "drawOrder": null, "icon": null }, "geometry": { "type": "Point", "coordinates": [ 106.86799, 13.376915, 0.0 ] } },
{ "type": "Feature", "properties": { "Name": "1", "description": "<br><br><br>\n    <table border=\"1\" padding=\"0\">\n      <tr><td>Degrees</td><td></td></tr>\n      <tr><td>DMS</td><td></td></tr>\n        ", "timestamp": null, "begin": null, "end": null, "altitudeMode": "relativeToGround", "tessellate": -1, "extrude": 1, "visibility": 1, "drawOrder": null, "icon": null }, "geometry": { "type": "Point", "coordinates": [ 106.868394, 13.398061, 0.0 ] } },
{ "type": "Feature", "properties": { "Name": "6", "description": "<br><br><br>\n    <table border=\"1\" padding=\"0\">\n      <tr><td>Degrees</td><td></td></tr>\n      <tr><td>DMS</td><td></td></tr>\n        ", "timestamp": null, "begin": null, "end": null, "altitudeMode": "relativeToGround", "tessellate": -1, "extrude": 1, "visibility": 1, "drawOrder": null, "icon": null }, "geometry": { "type": "Point", "coordinates": [ 106.863764, 13.398015, 0.0 ] } },
{ "type": "Feature", "properties": { "Name": "7", "description": "<br><br><br>\n    <table border=\"1\" padding=\"0\">\n      <tr><td>Degrees</td><td></td></tr>\n      <tr><td>DMS</td><td></td></tr>\n        ", "timestamp": null, "begin": null, "end": null, "altitudeMode": "relativeToGround", "tessellate": -1, "extrude": 1, "visibility": 1, "drawOrder": null, "icon": null }, "geometry": { "type": "Point", "coordinates": [ 106.863597, 13.391457, 0.0 ] } },
{ "type": "Feature", "properties": { "Name": "8", "description": "<br><br><br>\n    <table border=\"1\" padding=\"0\">\n      <tr><td>Degrees</td><td></td></tr>\n      <tr><td>DMS</td><td></td></tr>\n        ", "timestamp": null, "begin": null, "end": null, "altitudeMode": "relativeToGround", "tessellate": -1, "extrude": 1, "visibility": 1, "drawOrder": null, "icon": null }, "geometry": { "type": "Point", "coordinates": [ 106.863538, 13.385682, 0.0 ] } },
{ "type": "Feature", "properties": { "Name": "9", "description": "<br><br><br>\n    <table border=\"1\" padding=\"0\">\n      <tr><td>Degrees</td><td></td></tr>\n      <tr><td>DMS</td><td></td></tr>\n        ", "timestamp": null, "begin": null, "end": null, "altitudeMode": "relativeToGround", "tessellate": -1, "extrude": 1, "visibility": 1, "drawOrder": null, "icon": null }, "geometry": { "type": "Point", "coordinates": [ 106.8635, 13.381306, 0.0 ] } },
{ "type": "Feature", "properties": { "Name": "10", "description": "<br><br><br>\n    <table border=\"1\" padding=\"0\">\n      <tr><td>Degrees</td><td></td></tr>\n      <tr><td>DMS</td><td></td></tr>\n        ", "timestamp": null, "begin": null, "end": null, "altitudeMode": "relativeToGround", "tessellate": -1, "extrude": 1, "visibility": 1, "drawOrder": null, "icon": null }, "geometry": { "type": "Point", "coordinates": [ 106.863739, 13.375821, 0.0 ] } },
{ "type": "Feature", "properties": { "Name": "11", "description": "<br><br><br>\n    <table border=\"1\" padding=\"0\">\n      <tr><td>Degrees</td><td></td></tr>\n      <tr><td>DMS</td><td></td></tr>\n        ", "timestamp": null, "begin": null, "end": null, "altitudeMode": "relativeToGround", "tessellate": -1, "extrude": 1, "visibility": 1, "drawOrder": null, "icon": null }, "geometry": { "type": "Point", "coordinates": [ 106.859618, 13.398139, 0.0 ] } },
{ "type": "Feature", "properties": { "Name": "12", "description": "<br><br><br>\n    <table border=\"1\" padding=\"0\">\n      <tr><td>Degrees</td><td></td></tr>\n      <tr><td>DMS</td><td></td></tr>\n        ", "timestamp": null, "begin": null, "end": null, "altitudeMode": "relativeToGround", "tessellate": -1, "extrude": 1, "visibility": 1, "drawOrder": null, "icon": null }, "geometry": { "type": "Point", "coordinates": [ 106.859449, 13.391455, 0.0 ] } },
{ "type": "Feature", "properties": { "Name": "13", "description": "<br><br><br>\n    <table border=\"1\" padding=\"0\">\n      <tr><td>Degrees</td><td></td></tr>\n      <tr><td>DMS</td><td></td></tr>\n        ", "timestamp": null, "begin": null, "end": null, "altitudeMode": "relativeToGround", "tessellate": -1, "extrude": 1, "visibility": 1, "drawOrder": null, "icon": null }, "geometry": { "type": "Point", "coordinates": [ 106.859424, 13.385743, 0.0 ] } },
{ "type": "Feature", "properties": { "Name": "14", "description": "<br><br><br>\n    <table border=\"1\" padding=\"0\">\n      <tr><td>Degrees</td><td></td></tr>\n      <tr><td>DMS</td><td></td></tr>\n        ", "timestamp": null, "begin": null, "end": null, "altitudeMode": "relativeToGround", "tessellate": -1, "extrude": 1, "visibility": 1, "drawOrder": null, "icon": null }, "geometry": { "type": "Point", "coordinates": [ 106.859259, 13.38135, 0.0 ] } },
{ "type": "Feature", "properties": { "Name": "15", "description": "<br><br><br>\n    <table border=\"1\" padding=\"0\">\n      <tr><td>Degrees</td><td></td></tr>\n      <tr><td>DMS</td><td></td></tr>\n        ", "timestamp": null, "begin": null, "end": null, "altitudeMode": "relativeToGround", "tessellate": -1, "extrude": 1, "visibility": 1, "drawOrder": null, "icon": null }, "geometry": { "type": "Point", "coordinates": [ 106.859231, 13.375821, 0.0 ] } },
{ "type": "Feature", "properties": { "Name": "16", "description": "<br><br><br>\n    <table border=\"1\" padding=\"0\">\n      <tr><td>Degrees</td><td></td></tr>\n      <tr><td>DMS</td><td></td></tr>\n        ", "timestamp": null, "begin": null, "end": null, "altitudeMode": "relativeToGround", "tessellate": -1, "extrude": 1, "visibility": 1, "drawOrder": null, "icon": null }, "geometry": { "type": "Point", "coordinates": [ 106.855032, 13.398076, 0.0 ] } },
{ "type": "Feature", "properties": { "Name": "17", "description": "<br><br><br>\n    <table border=\"1\" padding=\"0\">\n      <tr><td>Degrees</td><td></td></tr>\n      <tr><td>DMS</td><td></td></tr>\n        ", "timestamp": null, "begin": null, "end": null, "altitudeMode": "relativeToGround", "tessellate": -1, "extrude": 1, "visibility": 1, "drawOrder": null, "icon": null }, "geometry": { "type": "Point", "coordinates": [ 106.854878, 13.39146, 0.0 ] } },
{ "type": "Feature", "properties": { "Name": "18", "description": "<br><br><br>\n    <table border=\"1\" padding=\"0\">\n      <tr><td>Degrees</td><td></td></tr>\n      <tr><td>DMS</td><td></td></tr>\n        ", "timestamp": null, "begin": null, "end": null, "altitudeMode": "relativeToGround", "tessellate": -1, "extrude": 1, "visibility": 1, "drawOrder": null, "icon": null }, "geometry": { "type": "Point", "coordinates": [ 106.854743, 13.385776, 0.0 ] } },
{ "type": "Feature", "properties": { "Name": "19", "description": "<br><br><br>\n    <table border=\"1\" padding=\"0\">\n      <tr><td>Degrees</td><td></td></tr>\n      <tr><td>DMS</td><td></td></tr>\n        ", "timestamp": null, "begin": null, "end": null, "altitudeMode": "relativeToGround", "tessellate": -1, "extrude": 1, "visibility": 1, "drawOrder": null, "icon": null }, "geometry": { "type": "Point", "coordinates": [ 106.854743, 13.381491, 0.0 ] } },
{ "type": "Feature", "properties": { "Name": "20", "description": "<br><br><br>\n    <table border=\"1\" padding=\"0\">\n      <tr><td>Degrees</td><td></td></tr>\n      <tr><td>DMS</td><td></td></tr>\n        ", "timestamp": null, "begin": null, "end": null, "altitudeMode": "relativeToGround", "tessellate": -1, "extrude": 1, "visibility": 1, "drawOrder": null, "icon": null }, "geometry": { "type": "Point", "coordinates": [ 106.854518, 13.37586, 0.0 ] } },
{ "type": "Feature", "properties": { "Name": "21", "description": "<br><br><br>\n    <table border=\"1\" padding=\"0\">\n      <tr><td>Degrees</td><td></td></tr>\n      <tr><td>DMS</td><td></td></tr>\n        ", "timestamp": null, "begin": null, "end": null, "altitudeMode": "relativeToGround", "tessellate": -1, "extrude": 1, "visibility": 1, "drawOrder": null, "icon": null }, "geometry": { "type": "Point", "coordinates": [ 106.850256, 13.398204, 0.0 ] } },
{ "type": "Feature", "properties": { "Name": "22", "description": "<br><br><br>\n    <table border=\"1\" padding=\"0\">\n      <tr><td>Degrees</td><td></td></tr>\n      <tr><td>DMS</td><td></td></tr>\n        ", "timestamp": null, "begin": null, "end": null, "altitudeMode": "relativeToGround", "tessellate": -1, "extrude": 1, "visibility": 1, "drawOrder": null, "icon": null }, "geometry": { "type": "Point", "coordinates": [ 106.850182, 13.391591, 0.0 ] } },
{ "type": "Feature", "properties": { "Name": "23", "description": "<br><br><br>\n    <table border=\"1\" padding=\"0\">\n      <tr><td>Degrees</td><td></td></tr>\n      <tr><td>DMS</td><td></td></tr>\n        ", "timestamp": null, "begin": null, "end": null, "altitudeMode": "relativeToGround", "tessellate": -1, "extrude": 1, "visibility": 1, "drawOrder": null, "icon": null }, "geometry": { "type": "Point", "coordinates": [ 106.849934, 13.385841, 0.0 ] } },
{ "type": "Feature", "properties": { "Name": "24", "description": "<br><br><br>\n    <table border=\"1\" padding=\"0\">\n      <tr><td>Degrees</td><td></td></tr>\n      <tr><td>DMS</td><td></td></tr>\n        ", "timestamp": null, "begin": null, "end": null, "altitudeMode": "relativeToGround", "tessellate": -1, "extrude": 1, "visibility": 1, "drawOrder": null, "icon": null }, "geometry": { "type": "Point", "coordinates": [ 106.849962, 13.381478, 0.0 ] } },
{ "type": "Feature", "properties": { "Name": "25", "description": "<br><br><br>\n    <table border=\"1\" padding=\"0\">\n      <tr><td>Degrees</td><td></td></tr>\n      <tr><td>DMS</td><td></td></tr>\n        ", "timestamp": null, "begin": null, "end": null, "altitudeMode": "relativeToGround", "tessellate": -1, "extrude": 1, "visibility": 1, "drawOrder": null, "icon": null }, "geometry": { "type": "Point", "coordinates": [ 106.850011, 13.376905, 0.0 ] } },
{ "type": "Feature", "properties": { "Name": "27", "description": "<br><br><br>\n    <table border=\"1\" padding=\"0\">\n      <tr><td>Degrees</td><td></td></tr>\n      <tr><td>DMS</td><td></td></tr>\n        ", "timestamp": null, "begin": null, "end": null, "altitudeMode": "relativeToGround", "tessellate": -1, "extrude": 1, "visibility": 1, "drawOrder": null, "icon": null }, "geometry": { "type": "Point", "coordinates": [ 106.845414, 13.398175, 0.0 ] } },
{ "type": "Feature", "properties": { "Name": "28", "description": "<br><br><br>\n    <table border=\"1\" padding=\"0\">\n      <tr><td>Degrees</td><td></td></tr>\n      <tr><td>DMS</td><td></td></tr>\n        ", "timestamp": null, "begin": null, "end": null, "altitudeMode": "relativeToGround", "tessellate": -1, "extrude": 1, "visibility": 1, "drawOrder": null, "icon": null }, "geometry": { "type": "Point", "coordinates": [ 106.846399, 13.391483, 0.0 ] } },
{ "type": "Feature", "properties": { "Name": "29", "description": "<br><br><br>\n    <table border=\"1\" padding=\"0\">\n      <tr><td>Degrees</td><td></td></tr>\n      <tr><td>DMS</td><td></td></tr>\n        ", "timestamp": null, "begin": null, "end": null, "altitudeMode": "relativeToGround", "tessellate": -1, "extrude": 1, "visibility": 1, "drawOrder": null, "icon": null }, "geometry": { "type": "Point", "coordinates": [ 106.84632, 13.385905, 0.0 ] } },
{ "type": "Feature", "properties": { "Name": "30", "description": "<br><br><br>\n    <table border=\"1\" padding=\"0\">\n      <tr><td>Degrees</td><td></td></tr>\n      <tr><td>DMS</td><td></td></tr>\n        ", "timestamp": null, "begin": null, "end": null, "altitudeMode": "relativeToGround", "tessellate": -1, "extrude": 1, "visibility": 1, "drawOrder": null, "icon": null }, "geometry": { "type": "Point", "coordinates": [ 106.846042, 13.381565, 0.0 ] } },
{ "type": "Feature", "properties": { "Name": "31", "description": "<br><br><br>\n    <table border=\"1\" padding=\"0\">\n      <tr><td>Degrees</td><td></td></tr>\n      <tr><td>DMS</td><td></td></tr>\n        ", "timestamp": null, "begin": null, "end": null, "altitudeMode": "relativeToGround", "tessellate": -1, "extrude": 1, "visibility": 1, "drawOrder": null, "icon": null }, "geometry": { "type": "Point", "coordinates": [ 106.845726, 13.376935, 0.0 ] } },
{ "type": "Feature", "properties": { "Name": "33", "description": "<br><br><br>\n    <table border=\"1\" padding=\"0\">\n      <tr><td>Degrees</td><td></td></tr>\n      <tr><td>DMS</td><td></td></tr>\n        ", "timestamp": null, "begin": null, "end": null, "altitudeMode": "relativeToGround", "tessellate": -1, "extrude": 1, "visibility": 1, "drawOrder": null, "icon": null }, "geometry": { "type": "Point", "coordinates": [ 106.841439, 13.398297, 0.0 ] } },
{ "type": "Feature", "properties": { "Name": "26", "description": "<br><br><br>\n    <table border=\"1\" padding=\"0\">\n      <tr><td>Degrees</td><td></td></tr>\n      <tr><td>DMS</td><td></td></tr>\n        ", "timestamp": null, "begin": null, "end": null, "altitudeMode": "relativeToGround", "tessellate": -1, "extrude": 1, "visibility": 1, "drawOrder": null, "icon": null }, "geometry": { "type": "Point", "coordinates": [ 106.850011, 13.373333, 0.0 ] } },
{ "type": "Feature", "properties": { "Name": "32", "description": "<br><br><br>\n    <table border=\"1\" padding=\"0\">\n      <tr><td>Degrees</td><td></td></tr>\n      <tr><td>DMS</td><td></td></tr>\n        ", "timestamp": null, "begin": null, "end": null, "altitudeMode": "relativeToGround", "tessellate": -1, "extrude": 1, "visibility": 1, "drawOrder": null, "icon": null }, "geometry": { "type": "Point", "coordinates": [ 106.845726, 13.373363, 0.0 ] } },
{ "type": "Feature", "properties": { "Name": "34", "description": "<br><br><br>\n    <table border=\"1\" padding=\"0\">\n      <tr><td>Degrees</td><td></td></tr>\n      <tr><td>DMS</td><td></td></tr>\n        ", "timestamp": null, "begin": null, "end": null, "altitudeMode": "relativeToGround", "tessellate": -1, "extrude": 1, "visibility": 1, "drawOrder": null, "icon": null }, "geometry": { "type": "Point", "coordinates": [ 106.840361, 13.391696, 0.0 ] } },
{ "type": "Feature", "properties": { "Name": "35", "description": "<br><br><br>\n    <table border=\"1\" padding=\"0\">\n      <tr><td>Degrees</td><td></td></tr>\n      <tr><td>DMS</td><td></td></tr>\n        ", "timestamp": null, "begin": null, "end": null, "altitudeMode": "relativeToGround", "tessellate": -1, "extrude": 1, "visibility": 1, "drawOrder": null, "icon": null }, "geometry": { "type": "Point", "coordinates": [ 106.840227, 13.385672, 0.0 ] } },
{ "type": "Feature", "properties": { "Name": "36", "description": "<br><br><br>\n    <table border=\"1\" padding=\"0\">\n      <tr><td>Degrees</td><td></td></tr>\n      <tr><td>DMS</td><td></td></tr>\n        ", "timestamp": null, "begin": null, "end": null, "altitudeMode": "relativeToGround", "tessellate": -1, "extrude": 1, "visibility": 1, "drawOrder": null, "icon": null }, "geometry": { "type": "Point", "coordinates": [ 106.840225, 13.381696, 0.0 ] } }
]
}
